OBJECT_NAME,OBJECT_ID,EPOCH,MEAN_MOTION,ECCENTRICITY,INCLINATION,RA_OF_ASC_NODE,ARG_OF_PERICENTER,MEAN_ANOMALY,EPHEMERIS_TYPE,CLASSIFICATION_TYPE,NORAD_CAT_ID,ELEMENT_SET_NO,REV_AT_EPOCH,BSTAR,MEAN_MOTION_DOT,MEAN_MOTION_DDOT
SL-12 R/B(2),1985-042D,2026-07-16T10:31:02.377344,14.22011021,.0037351,71.1066,175.7152,284.3645,202.0898,0,U,15772,999,13269,.40311E-4,.42E-6,0
SL-14 R/B,1985-069B,2026-07-16T15:39:07.768800,14.86535705,.0020122,82.5261,263.6560,122.7618,237.5541,0,U,15945,999,19199,.21819E-4,.219E-5,0
SL-16 R/B,1985-097B,2026-07-16T12:29:33.385056,14.16613358,.0005705,71.0006,229.3224,49.0386,111.7686,0,U,16182,999,10547,.1281E-3,.208E-5,0
SL-14 R/B,1986-006B,2026-07-16T07:46:41.915136,14.86968778,.0075563,82.5283,138.6954,205.0823,154.6717,0,U,16496,999,16832,.21962E-4,.234E-5,0
COSMOS 1743,1986-034A,2026-07-16T07:19:46.965216,15.69707003,.0005459,82.5281,297.7105,173.0460,187.0878,0,U,16719,999,20035,.30769E-3,.3663E-3,0
SL-14 R/B,1986-046B,2026-07-16T14:02:45.708000,14.85691106,.0023647,82.4840,318.3974,158.5123,201.7092,0,U,16792,999,14554,.23177E-4,.227E-5,0
SL-14 R/B,1986-055B,2026-07-16T13:52:07.262112,14.85740804,.0017312,82.5204,5.4962,265.2753,163.3331,0,U,16882,999,13850,.19667E-4,.195E-5,0
AJISAI (EGS),1986-061A,2026-07-16T21:02:41.000352,12.44516655,.0011082,50.0102,56.1005,256.1905,298.1109,0,U,16908,999,48408,.34378E-4,-.92E-6,0
SL-14 R/B,1987-024B,2026-07-16T10:29:29.186304,14.86232194,.0017926,82.5299,331.7567,189.5662,170.5216,0,U,17567,999,10725,.22889E-4,.226E-5,0
COSMOS 1833,1987-027A,2026-07-16T18:27:19.237824,14.13067016,.0024347,70.9212,54.6924,6.1713,353.9703,0,U,17589,999,2855,.55221E-4,.55E-6,0
SL-16 R/B,1987-027B,2026-07-16T20:40:28.958592,14.17173992,.0007147,71.0034,4.2944,279.9413,80.0904,0,U,17590,999,3364,.11158E-3,.177E-5,0
SL-14 R/B,1987-038B,2026-07-16T10:20:43.348128,14.85461925,.0020852,82.5013,175.5259,98.4293,261.9288,0,U,17912,999,9834,.20531E-4,.202E-5,0
COSMOS 1844,1987-041A,2026-07-16T19:21:52.716096,14.14581054,.0031221,70.8998,121.8305,192.9194,167.1131,0,U,17973,999,2184,.43399E-4,.35E-6,0
SL-14 R/B,1987-055B,2026-07-16T14:05:37.591296,14.85727486,.0019337,82.4970,227.5127,310.2257,49.7266,0,U,18153,999,8907,.17246E-4,.174E-5,0
COSMOS 1867,1987-060A,2026-07-16T13:04:17.533632,14.31518582,.0017186,65.0119,305.8409,281.9924,77.9234,0,U,18187,999,3838,.96582E-5,-.75E-6,0
SL-14 R/B,1988-001B,2026-07-16T19:02:31.049952,14.85627301,.0018304,82.5119,73.9188,166.5819,193.5888,0,U,18749,999,6119,.20307E-4,.201E-5,0
COSMOS 1933,1988-020A,2026-07-16T08:31:55.716672,15.18893039,.0005869,82.5141,123.5489,104.5776,255.6110,0,U,18958,999,6975,.88316E-4,.1874E-4,0
SL-3 R/B,1988-032B,2026-07-16T20:22:28.499808,15.21038804,.002665,97.5276,180.8666,140.1564,220.1635,0,U,19046,999,7173,.97918E-4,.2121E-4,0
SL-16 R/B,1988-039B,2026-07-16T07:00:42.439104,14.19631425,.002056,71.0126,156.6154,147.6136,212.6255,0,U,19120,999,97663,-.10646E-5,-.5E-6,0
COSMOS 1953,1988-050A,2026-07-16T20:07:21.167616,15.30350057,.001136,82.5062,28.1208,34.7941,325.4040,0,U,19210,999,5752,.12654E-3,.3754E-4,0
SL-8 R/B,1988-053B,2026-07-16T13:29:41.430912,14.38978716,.0019784,74.0456,234.9088,20.0654,91.9568,0,U,19257,999,99513,.45896E-4,.116E-5,0
COSMOS 1975,1988-093A,2026-07-16T20:32:47.389056,15.29673879,.001246,82.5203,347.8474,77.3903,282.8729,0,U,19573,999,3914,.1201E-3,.3494E-4,0
SL-14 R/B,1988-093B,2026-07-16T11:48:52.195392,14.85760442,.00199,82.5316,281.1344,335.8685,35.4801,0,U,19574,999,2014,.18618E-4,.186E-5,0
SL-16 R/B,1988-102B,2026-07-16T12:43:45.017760,14.16166574,.0014228,70.9976,240.3976,183.4214,176.6814,0,U,19650,999,94513,.69618E-5,-.34E-6,0
INTERCOSMOS 24,1989-080A,2026-07-16T15:20:53.746944,12.59692364,.1187104,82.6051,20.4739,353.5936,5.1042,0,U,20261,999,68303,.28661E-4,.111E-5,0
SL-14 R/B,1989-080C,2026-07-16T16:23:02.369184,12.50578679,.1228755,82.5932,90.3563,249.8872,96.6072,0,U,20262,999,67627,.19496E-4,.68E-6,0
DELTA 1 R/B,1989-089B,2026-07-16T12:46:50.520288,14.50748249,.0070623,97.0635,24.3947,75.8494,285.0538,0,U,20323,999,91441,.37158E-4,.116E-5,0
ARIANE 40 R/B,1990-005H,2026-07-16T15:31:04.887840,14.39941100,.0010369,98.2944,254.3442,169.7242,190.4160,0,U,20443,999,91136,.4308E-4,.93E-6,0
DELTA 2 R/B(1),1990-008B,2026-07-16T17:37:19.648416,15.73853612,.0058209,35.5996,37.2583,30.6255,329.7865,0,U,20453,999,94635,.51898E-3,.85639E-3,0
COSMOS 2058,1990-010A,2026-07-16T18:45:57.678048,15.12161954,.0008039,82.4673,280.1670,243.1580,116.8829,0,U,20465,999,96174,.10233E-3,.1794E-4,0
SL-14 R/B,1990-010B,2026-07-16T08:53:35.460384,14.83663431,.0018445,82.5036,146.5389,233.1287,126.8238,0,U,20466,999,94756,.1798E-4,.173E-5,0
