SL-12 R/B(2)            
1 15772U 85042D   26197.43822196  .00000042  00000+0  40311-4 0  9999
2 15772  71.1066 175.7152 0037351 284.3645 202.0898 14.22011021132698
SL-14 R/B               
1 15945U 85069B   26197.65217325  .00000219  00000+0  21819-4 0  9994
2 15945  82.5261 263.6560 0020122 122.7618 237.5541 14.86535705191992
SL-16 R/B               
1 16182U 85097B   26197.52052529  .00000208  00000+0  12810-3 0  9996
2 16182  71.0006 229.3224 0005705  49.0386 111.7686 14.16613358105470
SL-14 R/B               
1 16496U 86006B   26197.32409624  .00000234  00000+0  21962-4 0  9993
2 16496  82.5283 138.6954 0075563 205.0823 154.6717 14.86968778168323
COSMOS 1743             
1 16719U 86034A   26197.30540469  .00036630  00000+0  30769-3 0  9996
2 16719  82.5281 297.7105 0005459 173.0460 187.0878 15.69707003200354
SL-14 R/B               
1 16792U 86046B   26197.58525125  .00000227  00000+0  23177-4 0  9991
2 16792  82.4840 318.3974 0023647 158.5123 201.7092 14.85691106145546
SL-14 R/B               
1 16882U 86055B   26197.57786183  .00000195  00000+0  19667-4 0  9996
2 16882  82.5204   5.4962 0017312 265.2753 163.3331 14.85740804138506
AJISAI (EGS)            
1 16908U 86061A   26197.87686343 -.00000092  00000+0  34378-4 0  9995
2 16908  50.0102  56.1005 0011082 256.1905 298.1109 12.44516655484084
SL-14 R/B               
1 17567U 87024B   26197.43714336  .00000226  00000+0  22889-4 0  9995
2 17567  82.5299 331.7567 0017926 189.5662 170.5216 14.86232194107254
COSMOS 1833             
1 17589U 87027A   26197.76897266  .00000055  00000+0  55221-4 0  9998
2 17589  70.9212  54.6924 0024347   6.1713 353.9703 14.13067016 28550
SL-16 R/B               
1 17590U 87027B   26197.86144628  .00000177  00000+0  11158-3 0  9993
2 17590  71.0034   4.2944 0007147 279.9413  80.0904 14.17173992 33647
SL-14 R/B               
1 17912U 87038B   26197.43105727  .00000202  00000+0  20531-4 0  9998
2 17912  82.5013 175.5259 0020852  98.4293 261.9288 14.85461925 98342
COSMOS 1844             
1 17973U 87041A   26197.80686014  .00000035  00000+0  43399-4 0  9994
2 17973  70.8998 121.8305 0031221 192.9194 167.1131 14.14581054 21842
SL-14 R/B               
1 18153U 87055B   26197.58724064  .00000174  00000+0  17246-4 0  9999
2 18153  82.4970 227.5127 0019337 310.2257  49.7266 14.85727486 89079
COSMOS 1867             
1 18187U 87060A   26197.54464738 -.00000075  00000+0  96582-5 0  9999
2 18187  65.0119 305.8409 0017186 281.9924  77.9234 14.31518582 38388
SL-14 R/B               
1 18749U 88001B   26197.79341493  .00000201  00000+0  20307-4 0  9999
2 18749  82.5119  73.9188 0018304 166.5819 193.5888 14.85627301 61191
COSMOS 1933             
1 18958U 88020A   26197.35550598  .00001874  00000+0  88316-4 0  9993
2 18958  82.5141 123.5489 0005869 104.5776 255.6110 15.18893039 69758
SL-3 R/B                
1 19046U 88032B   26197.84894097  .00002121  00000+0  97918-4 0  9998
2 19046  97.5276 180.8666 0026650 140.1564 220.1635 15.21038804 71732
SL-16 R/B               
1 19120U 88039B   26197.29215786 -.00000050  00000+0 -10646-5 0  9994
2 19120  71.0126 156.6154 0020560 147.6136 212.6255 14.19631425976631
COSMOS 1953             
1 19210U 88050A   26197.83843944  .00003754  00000+0  12654-3 0  9991
2 19210  82.5062  28.1208 0011360  34.7941 325.4040 15.30350057 57524
SL-8 R/B                
1 19257U 88053B   26197.56228508  .00000116  00000+0  45896-4 0  9992
2 19257  74.0456 234.9088 0019784  20.0654  91.9568 14.38978716995131
COSMOS 1975             
1 19573U 88093A   26197.85610404  .00003494  00000+0  12010-3 0  9992
2 19573  82.5203 347.8474 0012460  77.3903 282.8729 15.29673879 39148
SL-14 R/B               
1 19574U 88093B   26197.49227078  .00000186  00000+0  18618-4 0  9990
2 19574  82.5316 281.1344 0019900 335.8685  35.4801 14.85760442 20142
SL-16 R/B               
1 19650U 88102B   26197.53038215 -.00000034  00000+0  69618-5 0  9994
2 19650  70.9976 240.3976 0014228 183.4214 176.6814 14.16166574945138
INTERCOSMOS 24          
1 20261U 89080A   26197.63951096  .00000111  00000+0  28661-4 0  9999
2 20261  82.6051  20.4739 1187104 353.5936   5.1042 12.59692364683035
SL-14 R/B               
1 20262U 89080C   26197.68266631  .00000068  00000+0  19496-4 0  9996
2 20262  82.5932  90.3563 1228755 249.8872  96.6072 12.50578679676277
DELTA 1 R/B             
1 20323U 89089B   26197.53252917  .00000116  00000+0  37158-4 0  9998
2 20323  97.0635  24.3947 0070623  75.8494 285.0538 14.50748249914410
ARIANE 40 R/B           
1 20443U 90005H   26197.64658435  .00000093  00000+0  43080-4 0  9993
2 20443  98.2944 254.3442 0010369 169.7242 190.4160 14.39941100911368
DELTA 2 R/B(1)          
1 20453U 90008B   26197.73425519  .00085639  00000+0  51898-3 0  9996
2 20453  35.5996  37.2583 0058209  30.6255 329.7865 15.73853612946354
COSMOS 2058             
1 20465U 90010A   26197.78191757  .00001794  00000+0  10233-3 0  9999
2 20465  82.4673 280.1670 0008039 243.1580 116.8829 15.12161954961743
SL-14 R/B               
1 20466U 90010B   26197.37054931  .00000173  00000+0  17980-4 0  9994
2 20466  82.5036 146.5389 0018445 233.1287 126.8238 14.83663431947568
